CCSDS_OMM_VERS = 2.0
CREATION_DATE  = 
ORIGINATOR     = 

OBJECT_NAME    = PROGRESS-MS 32
OBJECT_ID      = 2025-204A
CENTER_NAME    = EARTH
REF_FRAME      = TEME
TIME_SYSTEM    = UTC
MEAN_ELEMENT_THEORY = SGP/SGP4

EPOCH          = 2025-11-26T22:21:35.365248
MEAN_MOTION    = 15.49107800
ECCENTRICITY   = .00038121
INCLINATION    = 51.6311
RA_OF_ASC_NODE = 220.7305
ARG_OF_PERICENTER = 172.0243
MEAN_ANOMALY   = 188.0807

EPHEMERIS_TYPE = 0
CLASSIFICATION_TYPE = U
NORAD_CAT_ID   = 65586
ELEMENT_SET_NO = 999
REV_AT_EPOCH   = 27
BSTAR          = .19921871E-3
MEAN_MOTION_DOT = .10582E-3
MEAN_MOTION_DDOT = 0

CCSDS_OMM_VERS = 2.0
CREATION_DATE  = 
ORIGINATOR     = 

OBJECT_NAME    = CYGNUS NG-23
OBJECT_ID      = 2025-208A
CENTER_NAME    = EARTH
REF_FRAME      = TEME
TIME_SYSTEM    = UTC
MEAN_ELEMENT_THEORY = SGP/SGP4

EPOCH          = 2025-11-26T22:21:35.365248
MEAN_MOTION    = 15.49107800
ECCENTRICITY   = .00038121
INCLINATION    = 51.6311
RA_OF_ASC_NODE = 220.7305
ARG_OF_PERICENTER = 172.0243
MEAN_ANOMALY   = 188.0807

EPHEMERIS_TYPE = 0
CLASSIFICATION_TYPE = U
NORAD_CAT_ID   = 65616
ELEMENT_SET_NO = 999
REV_AT_EPOCH   = 22
BSTAR          = .19921871E-3
MEAN_MOTION_DOT = .10582E-3
MEAN_MOTION_DDOT = 0

CCSDS_OMM_VERS = 2.0
CREATION_DATE  = 
ORIGINATOR     = 

OBJECT_NAME    = DRAGONFLY
OBJECT_ID      = 1998-067XH
CENTER_NAME    = EARTH
REF_FRAME      = TEME
TIME_SYSTEM    = UTC
MEAN_ELEMENT_THEORY = SGP/SGP4

EPOCH          = 2025-11-27T01:40:23.666304
MEAN_MOTION    = 15.66488237
ECCENTRICITY   = .0006359
INCLINATION    = 51.6259
RA_OF_ASC_NODE = 215.6515
ARG_OF_PERICENTER = 187.6965
MEAN_ANOMALY   = 172.3934

EPHEMERIS_TYPE = 0
CLASSIFICATION_TYPE = U
NORAD_CAT_ID   = 65729
ELEMENT_SET_NO = 999
REV_AT_EPOCH   = 1070
BSTAR          = .12054E-2
MEAN_MOTION_DOT = .129788E-2
MEAN_MOTION_DDOT = 0

CCSDS_OMM_VERS = 2.0
CREATION_DATE  = 
ORIGINATOR     = 

OBJECT_NAME    = 1998-067XJ
OBJECT_ID      = 1998-067XJ
CENTER_NAME    = EARTH
REF_FRAME      = TEME
TIME_SYSTEM    = UTC
MEAN_ELEMENT_THEORY = SGP/SGP4

EPOCH          = 2025-11-27T00:51:55.267776
MEAN_MOTION    = 15.95840981
ECCENTRICITY   = .0012114
INCLINATION    = 51.6170
RA_OF_ASC_NODE = 211.6207
ARG_OF_PERICENTER = 196.6736
MEAN_ANOMALY   = 163.3876

EPHEMERIS_TYPE = 0
CLASSIFICATION_TYPE = U
NORAD_CAT_ID   = 65730
ELEMENT_SET_NO = 999
REV_AT_EPOCH   = 1075
BSTAR          = .26314E-2
MEAN_MOTION_DOT = .1096243E-1
MEAN_MOTION_DDOT = .57299E-3

CCSDS_OMM_VERS = 2.0
CREATION_DATE  = 
ORIGINATOR     = 

OBJECT_NAME    = 1998-067XK
OBJECT_ID      = 1998-067XK
CENTER_NAME    = EARTH
REF_FRAME      = TEME
TIME_SYSTEM    = UTC
MEAN_ELEMENT_THEORY = SGP/SGP4

EPOCH          = 2025-11-26T21:17:23.525376
MEAN_MOTION    = 15.62340942
ECCENTRICITY   = .0006027
INCLINATION    = 51.6290
RA_OF_ASC_NODE = 217.4402
ARG_OF_PERICENTER = 161.3598
MEAN_ANOMALY   = 198.7618

EPHEMERIS_TYPE = 0
CLASSIFICATION_TYPE = U
NORAD_CAT_ID   = 65731
ELEMENT_SET_NO = 999
REV_AT_EPOCH   = 1066
BSTAR          = .91658E-3
MEAN_MOTION_DOT = .83074E-3
MEAN_MOTION_DDOT = 0

CCSDS_OMM_VERS = 2.0
CREATION_DATE  = 
ORIGINATOR     = 

OBJECT_NAME    = RSP-03
OBJECT_ID      = 1998-067XL
CENTER_NAME    = EARTH
REF_FRAME      = TEME
TIME_SYSTEM    = UTC
MEAN_ELEMENT_THEORY = SGP/SGP4

EPOCH          = 2025-11-27T01:02:52.439136
MEAN_MOTION    = 15.64316778
ECCENTRICITY   = .000692
INCLINATION    = 51.6278
RA_OF_ASC_NODE = 216.2303
ARG_OF_PERICENTER = 163.8014
MEAN_ANOMALY   = 196.3204

EPHEMERIS_TYPE = 0
CLASSIFICATION_TYPE = U
NORAD_CAT_ID   = 65732
ELEMENT_SET_NO = 999
REV_AT_EPOCH   = 1070
BSTAR          = .10944E-2
MEAN_MOTION_DOT = .107685E-2
MEAN_MOTION_DDOT = 0

CCSDS_OMM_VERS = 2.0
CREATION_DATE  = 
ORIGINATOR     = 

OBJECT_NAME    = GHS-01
OBJECT_ID      = 1998-067XM
CENTER_NAME    = EARTH
REF_FRAME      = TEME
TIME_SYSTEM    = UTC
MEAN_ELEMENT_THEORY = SGP/SGP4

EPOCH          = 2025-11-27T02:33:59.064768
MEAN_MOTION    = 15.68168480
ECCENTRICITY   = .0006862
INCLINATION    = 51.6285
RA_OF_ASC_NODE = 215.1550
ARG_OF_PERICENTER = 185.7186
MEAN_ANOMALY   = 174.3734

EPHEMERIS_TYPE = 0
CLASSIFICATION_TYPE = U
NORAD_CAT_ID   = 65733
ELEMENT_SET_NO = 999
REV_AT_EPOCH   = 1072
BSTAR          = .1359E-2
MEAN_MOTION_DOT = .157304E-2
MEAN_MOTION_DDOT = 0

CCSDS_OMM_VERS = 2.0
CREATION_DATE  = 
ORIGINATOR     = 

OBJECT_NAME    = YOTSUBA-KULOVER
OBJECT_ID      = 1998-067XN
CENTER_NAME    = EARTH
REF_FRAME      = TEME
TIME_SYSTEM    = UTC
MEAN_ELEMENT_THEORY = SGP/SGP4

EPOCH          = 2025-11-26T16:16:33.343680
MEAN_MOTION    = 15.56918395
ECCENTRICITY   = .0002333
INCLINATION    = 51.6299
RA_OF_ASC_NODE = 220.5414
ARG_OF_PERICENTER = 132.5292
MEAN_ANOMALY   = 227.5897

EPHEMERIS_TYPE = 0
CLASSIFICATION_TYPE = U
NORAD_CAT_ID   = 65941
ELEMENT_SET_NO = 999
REV_AT_EPOCH   = 735
BSTAR          = .91329389E-3
MEAN_MOTION_DOT = .67083E-3
MEAN_MOTION_DDOT = 0

CCSDS_OMM_VERS = 2.0
CREATION_DATE  = 
ORIGINATOR     = 

OBJECT_NAME    = BOTAN
OBJECT_ID      = 1998-067XP
CENTER_NAME    = EARTH
REF_FRAME      = TEME
TIME_SYSTEM    = UTC
MEAN_ELEMENT_THEORY = SGP/SGP4

EPOCH          = 2025-11-26T17:05:27.071232
MEAN_MOTION    = 15.59139435
ECCENTRICITY   = .00046337
INCLINATION    = 51.6290
RA_OF_ASC_NODE = 220.0192
ARG_OF_PERICENTER = 140.0582
MEAN_ANOMALY   = 220.0753

EPHEMERIS_TYPE = 0
CLASSIFICATION_TYPE = U
NORAD_CAT_ID   = 65942
ELEMENT_SET_NO = 999
REV_AT_EPOCH   = 736
BSTAR          = .12095066E-2
MEAN_MOTION_DOT = .97179E-3
MEAN_MOTION_DDOT = 0

CCSDS_OMM_VERS = 2.0
CREATION_DATE  = 
ORIGINATOR     = 

OBJECT_NAME    = E-KAGAKU-1
OBJECT_ID      = 1998-067XQ
CENTER_NAME    = EARTH
REF_FRAME      = TEME
TIME_SYSTEM    = UTC
MEAN_ELEMENT_THEORY = SGP/SGP4

EPOCH          = 2025-11-26T02:24:16.330464
MEAN_MOTION    = 15.56818438
ECCENTRICITY   = .00039139
INCLINATION    = 51.6305
RA_OF_ASC_NODE = 223.4334
ARG_OF_PERICENTER = 118.0377
MEAN_ANOMALY   = 242.1011

EPHEMERIS_TYPE = 0
CLASSIFICATION_TYPE = U
NORAD_CAT_ID   = 65943
ELEMENT_SET_NO = 999
REV_AT_EPOCH   = 726
BSTAR          = .89891055E-3
MEAN_MOTION_DOT = .65773E-3
MEAN_MOTION_DDOT = 0

CCSDS_OMM_VERS = 2.0
CREATION_DATE  = 
ORIGINATOR     = 

OBJECT_NAME    = HRC MONOBLOCK CAMERA
OBJECT_ID      = 1998-067XR
CENTER_NAME    = EARTH
REF_FRAME      = TEME
TIME_SYSTEM    = UTC
MEAN_ELEMENT_THEORY = SGP/SGP4

EPOCH          = 2025-11-27T01:59:02.171328
MEAN_MOTION    = 15.52746039
ECCENTRICITY   = .0004645
INCLINATION    = 51.6291
RA_OF_ASC_NODE = 219.4893
ARG_OF_PERICENTER = 121.8068
MEAN_ANOMALY   = 238.3375

EPHEMERIS_TYPE = 0
CLASSIFICATION_TYPE = U
NORAD_CAT_ID   = 66052
ELEMENT_SET_NO = 999
REV_AT_EPOCH   = 640
BSTAR          = .58146E-3
MEAN_MOTION_DOT = .36314E-3
MEAN_MOTION_DDOT = 0

CCSDS_OMM_VERS = 2.0
CREATION_DATE  = 
ORIGINATOR     = 

OBJECT_NAME    = HTV-X1
OBJECT_ID      = 2025-241A
CENTER_NAME    = EARTH
REF_FRAME      = TEME
TIME_SYSTEM    = UTC
MEAN_ELEMENT_THEORY = SGP/SGP4

EPOCH          = 2025-11-26T22:21:35.365248
MEAN_MOTION    = 15.49107800
ECCENTRICITY   = .00038121
INCLINATION    = 51.6311
RA_OF_ASC_NODE = 220.7305
ARG_OF_PERICENTER = 172.0243
MEAN_ANOMALY   = 188.0807

EPHEMERIS_TYPE = 0
CLASSIFICATION_TYPE = U
NORAD_CAT_ID   = 66174
ELEMENT_SET_NO = 999
REV_AT_EPOCH   = 51
BSTAR          = .19921871E-3
MEAN_MOTION_DOT = .10582E-3
MEAN_MOTION_DDOT = 0

