PROGRESS-MS 32          
1 65586U 25204A   25330.93165932  .00010582  00000+0  19922-3 0  9995
2 65586  51.6311 220.7305 0003812 172.0243 188.0807 15.49107800   277
CYGNUS NG-23            
1 65616U 25208A   25330.93165932  .00010582  00000+0  19922-3 0  9993
2 65616  51.6311 220.7305 0003812 172.0243 188.0807 15.49107800   226
DRAGONFLY               
1 65729U 98067XH  25331.06971836  .00129788  00000+0  12054-2 0  9991
2 65729  51.6259 215.6515 0006359 187.6965 172.3934 15.66488237 10706
1998-067XJ              
1 65730U 98067XJ  25331.03605634  .01096243  57299-3  26314-2 0  9990
2 65730  51.6170 211.6207 0012114 196.6736 163.3876 15.95840981 10756
1998-067XK              
1 65731U 98067XK  25330.88707784  .00083074  00000+0  91658-3 0  9997
2 65731  51.6290 217.4402 0006027 161.3598 198.7618 15.62340942 10664
RSP-03                  
1 65732U 98067XL  25331.04366249  .00107685  00000+0  10944-2 0  9997
2 65732  51.6278 216.2303 0006920 163.8014 196.3204 15.64316778 10702
GHS-01                  
1 65733U 98067XM  25331.10693362  .00157304  00000+0  13590-2 0  9997
2 65733  51.6285 215.1550 0006862 185.7186 174.3734 15.68168480 10726
YOTSUBA-KULOVER         
1 65941U 98067XN  25330.67816370  .00067083  00000+0  91329-3 0  9996
2 65941  51.6299 220.5414 0002333 132.5292 227.5897 15.56918395  7359
BOTAN                   
1 65942U 98067XP  25330.71211888  .00097179  00000+0  12095-2 0  9996
2 65942  51.6290 220.0192 0004633 140.0582 220.0753 15.59139435  7363
E-KAGAKU-1              
1 65943U 98067XQ  25330.10018901  .00065773  00000+0  89891-3 0  9995
2 65943  51.6305 223.4334 0003913 118.0377 242.1011 15.56818438  7268
HRC MONOBLOCK CAMERA    
1 66052U 98067XR  25331.08266402  .00036314  00000+0  58146-3 0  9994
2 66052  51.6291 219.4893 0004645 121.8068 238.3375 15.52746039  6409
HTV-X1                  
1 66174U 25241A   25330.93165932  .00010582  00000+0  19922-3 0  9990
2 66174  51.6311 220.7305 0003812 172.0243 188.0807 15.49107800   518
